{
  "type": "FeatureCollection",
  "features": [
    {
      "type": "Feature",
      "geometry": {
        "type": "MultiPolygon",
        "coordinates": [
          [
            [
              [
                7.093,
                52.838
              ],
              [
                7.087,
                52.85
              ],
              [
                7.104,
                52.864
              ],
              [
                7.182,
                52.942
              ],
              [
                7.213,
                53.011
              ],
              [
                7.199,
                53.081
              ],
              [
                7.203,
                53.113
              ],
              [
                7.183,
                53.122
              ],
              [
                7.179,
                53.139
              ],
              [
                7.191,
                53.162
              ],
              [
                7.218,
                53.198
              ],
              [
                7.217,
                53.215
              ],
              [
                7.206,
                53.236
              ],
              [
                7.156,
                53.243
              ],
              [
                7.134,
                53.25
              ],
              [
                7.104,
                53.252
              ],
              [
                7.078,
                53.267
              ],
              [
                7.084,
                53.298
              ],
              [
                7.027,
                53.302
              ],
              [
                6.968,
                53.319
              ],
              [
                6.934,
                53.333
              ],
              [
                6.897,
                53.356
              ],
              [
                6.888,
                53.396
              ],
              [
                6.874,
                53.408
              ],
              [
                6.882,
                53.44
              ],
              [
                6.865,
                53.45
              ],
              [
                6.814,
                53.463
              ],
              [
                6.798,
                53.455
              ],
              [
                6.746,
                53.466
              ],
              [
                6.696,
                53.462
              ],
              [
                6.634,
                53.451
              ],
              [
                6.599,
                53.438
              ],
              [
                6.547,
                53.429
              ],
              [
                6.538,
                53.431
              ],
              [
                6.415,
                53.422
              ],
              [
                6.368,
                53.416
              ],
              [
                6.306,
                53.393
              ],
              [
                6.298,
                53.4
              ],
              [
                6.261,
                53.414
              ],
              [
                6.244,
                53.415
              ],
              [
                6.199,
                53.408
              ],
              [
                6.191,
                53.411
              ],
              [
                6.185,
                53.403
              ],
              [
                6.218,
                53.364
              ],
              [
                6.232,
                53.367
              ],
              [
                6.25,
                53.349
              ],
              [
                6.287,
                53.341
              ],
              [
                6.279,
                53.303
              ],
              [
                6.254,
                53.289
              ],
              [
                6.256,
                53.271
              ],
              [
                6.238,
                53.262
              ],
              [
                6.218,
                53.242
              ],
              [
                6.23,
                53.218
              ],
              [
                6.2,
                53.195
              ],
              [
                6.177,
                53.167
              ],
              [
                6.175,
                53.136
              ],
              [
                6.206,
                53.115
              ],
              [
                6.262,
                53.114
              ],
              [
                6.291,
                53.1
              ],
              [
                6.315,
                53.094
              ],
              [
                6.344,
                53.087
              ],
              [
                6.383,
                53.15
              ],
              [
                6.408,
                53.178
              ],
              [
                6.443,
                53.188
              ],
              [
                6.448,
                53.196
              ],
              [
                6.486,
                53.204
              ],
              [
                6.53,
                53.195
              ],
              [
                6.548,
                53.181
              ],
              [
                6.564,
                53.158
              ],
              [
                6.581,
                53.164
              ],
              [
                6.588,
                53.146
              ],
              [
                6.619,
                53.132
              ],
              [
                6.635,
                53.106
              ],
              [
                6.695,
                53.121
              ],
              [
                6.737,
                53.119
              ],
              [
                6.937,
                52.993
              ],
              [
                7.016,
                52.925
              ],
              [
                7.046,
                52.916
              ],
              [
                7.015,
                52.873
              ],
              [
                7.04,
                52.873
              ],
              [
                7.072,
                52.845
              ],
              [
                7.093,
                52.838
              ]
            ]
          ],
          [
            [
              [
                6.505,
                53.551
              ],
              [
                6.487,
                53.554
              ],
              [
                6.461,
                53.539
              ],
              [
                6.486,
                53.527
              ],
              [
                6.506,
                53.538
              ],
              [
                6.505,
                53.551
              ]
            ]
          ]
        ]
      },
      "properties": {
        "statcode": "PV20",
        "jrstatcode": "2026PV20",
        "statnaam": "Groningen",
        "rubriek": "provincie",
        "id": 1,
        "FID": "provincie_gegeneraliseerd.2383a7bc-9c91-4672-b435-5513f7ce8254"
      },
      "id": "PV20"
    },
    {
      "type": "Feature",
      "geometry": {
        "type": "MultiPolygon",
        "coordinates": [
          [
            [
              [
                5.16,
                53.296
              ],
              [
                5.127,
                53.3
              ],
              [
                5.133,
                53.284
              ],
              [
                5.16,
                53.296
              ]
            ]
          ],
          [
            [
              [
                5.1,
                53.301
              ],
              [
                5.064,
                53.308
              ],
              [
                5.036,
                53.302
              ],
              [
                4.961,
                53.271
              ],
              [
                4.933,
                53.255
              ],
              [
                4.854,
                53.222
              ],
              [
                4.845,
                53.208
              ],
              [
                4.869,
                53.204
              ],
              [
                4.88,
                53.215
              ],
              [
                4.919,
                53.216
              ],
              [
                4.979,
                53.249
              ],
              [
                4.972,
                53.265
              ],
              [
                5.033,
                53.281
              ],
              [
                5.063,
                53.294
              ],
              [
                5.1,
                53.301
              ]
            ]
          ],
          [
            [
              [
                6.191,
                53.411
              ],
              [
                6.177,
                53.415
              ],
              [
                6.139,
                53.404
              ],
              [
                6.095,
                53.408
              ],
              [
                6.016,
                53.403
              ],
              [
                5.933,
                53.388
              ],
              [
                5.888,
                53.391
              ],
              [
                5.86,
                53.384
              ],
              [
                5.779,
                53.356
              ],
              [
                5.756,
                53.353
              ],
              [
                5.68,
                53.328
              ],
              [
                5.587,
                53.3
              ],
              [
                5.562,
                53.285
              ],
              [
                5.527,
                53.257
              ],
              [
                5.483,
                53.241
              ],
              [
                5.449,
                53.22
              ],
              [
                5.42,
                53.182
              ],
              [
                5.404,
                53.122
              ],
              [
                5.379,
                53.108
              ],
              [
                5.378,
                53.095
              ],
              [
                5.349,
                53.078
              ],
              [
                5.293,
                53.067
              ],
              [
                5.166,
                53
              ],
              [
                5.167,
                52.999
              ],
              [
                5.297,
                53.067
              ],
              [
                5.344,
                53.074
              ],
              [
                5.375,
                53.091
              ],
              [
                5.393,
                53.063
              ],
              [
                5.376,
                53.055
              ],
              [
                5.408,
                53.02
              ],
              [
                5.397,
                53.003
              ],
              [
                5.413,
                52.964
              ],
              [
                5.401,
                52.939
              ],
              [
                5.407,
                52.91
              ],
              [
                5.371,
                52.899
              ],
              [
                5.357,
                52.884
              ],
              [
                5.366,
                52.874
              ],
              [
                5.398,
                52.857
              ],
              [
                5.426,
                52.848
              ],
              [
                5.454,
                52.855
              ],
              [
                5.5,
                52.846
              ],
              [
                5.545,
                52.833
              ],
              [
                5.567,
                52.834
              ],
              [
                5.585,
                52.849
              ],
              [
                5.618,
                52.851
              ],
              [
                5.645,
                52.86
              ],
              [
                5.658,
                52.844
              ],
              [
                5.685,
                52.846
              ],
              [
                5.713,
                52.838
              ],
              [
                5.725,
                52.844
              ],
              [
                5.749,
                52.84
              ],
              [
                5.795,
                52.807
              ],
              [
                5.82,
                52.817
              ],
              [
                5.844,
                52.805
              ],
              [
                5.876,
                52.801
              ],
              [
                5.898,
                52.808
              ],
              [
                5.924,
                52.824
              ],
              [
                5.93,
                52.835
              ],
              [
                5.972,
                52.842
              ],
              [
                5.997,
                52.817
              ],
              [
                6.025,
                52.823
              ],
              [
                6.031,
                52.815
              ],
              [
                6.06,
                52.826
              ],
              [
                6.053,
                52.837
              ],
              [
                6.081,
                52.839
              ],
              [
                6.12,
                52.854
              ],
              [
                6.207,
                52.891
              ],
              [
                6.232,
                52.913
              ],
              [
                6.257,
                52.928
              ],
              [
                6.303,
                52.925
              ],
              [
                6.333,
                52.906
              ],
              [
                6.393,
                52.933
              ],
              [
                6.428,
                52.972
              ],
              [
                6.363,
                53.034
              ],
              [
                6.368,
                53.067
              ],
              [
                6.305,
                53.081
              ],
              [
                6.315,
                53.094
              ],
              [
                6.291,
                53.1
              ],
              [
                6.262,
                53.114
              ],
              [
                6.206,
                53.115
              ],
              [
                6.175,
                53.136
              ],
              [
                6.177,
                53.167
              ],
              [
                6.2,
                53.195
              ],
              [
                6.23,
                53.218
              ],
              [
                6.218,
                53.242
              ],
              [
                6.238,
                53.262
              ],
              [
                6.256,
                53.271
              ],
              [
                6.254,
                53.289
              ],
              [
                6.279,
                53.303
              ],
              [
                6.287,
                53.341
              ],
              [
                6.254,
                53.348
              ],
              [
                6.221,
                53.342
              ],
              [
                6.162,
                53.369
              ],
              [
                6.155,
                53.392
              ],
              [
                6.162,
                53.408
              ],
              [
                6.191,
                53.411
              ]
            ]
          ],
          [
            [
              [
                5.543,
                53.439
              ],
              [
                5.495,
                53.444
              ],
              [
                5.376,
                53.423
              ],
              [
                5.251,
                53.404
              ],
              [
                5.201,
                53.395
              ],
              [
                5.165,
                53.37
              ],
              [
                5.151,
                53.35
              ],
              [
                5.191,
                53.348
              ],
              [
                5.221,
                53.364
              ],
              [
                5.257,
                53.373
              ],
              [
                5.293,
                53.37
              ],
              [
                5.357,
                53.388
              ],
              [
                5.384,
                53.402
              ],
              [
                5.459,
                53.405
              ],
              [
                5.476,
                53.417
              ],
              [
                5.541,
                53.433
              ],
              [
                5.543,
                53.439
              ]
            ]
          ],
          [
            [
              [
                5.731,
                53.462
              ],
              [
                5.695,
                53.462
              ],
              [
                5.668,
                53.471
              ],
              [
                5.652,
                53.47
              ],
              [
                5.616,
                53.453
              ],
              [
                5.616,
                53.44
              ],
              [
                5.643,
                53.427
              ],
              [
                5.68,
                53.425
              ],
              [
                5.703,
                53.43
              ],
              [
                5.73,
                53.443
              ],
              [
                5.805,
                53.438
              ],
              [
                5.891,
                53.451
              ],
              [
                5.931,
                53.468
              ],
              [
                5.771,
                53.46
              ],
              [
                5.731,
                53.462
              ]
            ]
          ],
          [
            [
              [
                6.379,
                53.507
              ],
              [
                6.345,
                53.516
              ],
              [
                6.289,
                53.509
              ],
              [
                6.229,
                53.505
              ],
              [
                6.15,
                53.497
              ],
              [
                6.119,
                53.483
              ],
              [
                6.115,
                53.463
              ],
              [
                6.161,
                53.472
              ],
              [
                6.197,
                53.472
              ],
              [
                6.252,
                53.478
              ],
              [
                6.274,
                53.489
              ],
              [
                6.33,
                53.501
              ],
              [
                6.338,
                53.506
              ],
              [
                6.379,
                53.507
              ]
            ]
          ]
        ]
      },
      "properties": {
        "statcode": "PV21",
        "jrstatcode": "2026PV21",
        "statnaam": "Fryslân",
        "rubriek": "provincie",
        "id": 2,
        "FID": "provincie_gegeneraliseerd.59812172-d768-42e2-aa4c-52df48670a35"
      },
      "id": "PV21"
    }
    ,
    {"type":"Feature","geometry":{"type":"Polygon","coordinates":[[[7.093,52.838],[7.072,52.845],[7.04,52.873],[7.015,52.873],[7.046,52.916],[7.016,52.925],[6.937,52.993],[6.737,53.119],[6.695,53.121],[6.635,53.106],[6.619,53.132],[6.588,53.146],[6.581,53.164],[6.564,53.158],[6.548,53.181],[6.53,53.195],[6.486,53.204],[6.448,53.196],[6.443,53.188],[6.408,53.178],[6.383,53.15],[6.344,53.087],[6.315,53.094],[6.305,53.081],[6.368,53.067],[6.363,53.034],[6.428,52.972],[6.393,52.933],[6.333,52.906],[6.303,52.925],[6.257,52.928],[6.232,52.913],[6.207,52.891],[6.12,52.854],[6.137,52.839],[6.202,52.794],[6.156,52.763],[6.12,52.75],[6.157,52.692],[6.181,52.675],[6.202,52.685],[6.248,52.676],[6.27,52.665],[6.327,52.669],[6.326,52.66],[6.364,52.643],[6.384,52.612],[6.434,52.626],[6.453,52.614],[6.47,52.625],[6.519,52.614],[6.514,52.646],[6.553,52.666],[6.615,52.674],[6.708,52.649],[6.71,52.628],[6.742,52.645],[6.777,52.652],[6.822,52.648],[6.897,52.651],[6.919,52.64],[6.939,52.638],[6.975,52.646],[7.042,52.633],[7.055,52.644],[7.064,52.723],[7.072,52.81],[7.093,52.838]]]},"properties":{"statcode":"PV22","jrstatcode":"2026PV22","statnaam":"Drenthe","rubriek":"provincie","id":3,"FID":"provincie_gegeneraliseerd.952186ec-c45e-4fba-8b7a-55ba69200380"},"id":"PV22"},
    {"type":"Feature","geometry":{"type":"Polygon","coordinates":[[[6.71,52.628],[6.708,52.649],[6.615,52.674],[6.553,52.666],[6.514,52.646],[6.519,52.614],[6.47,52.625],[6.453,52.614],[6.434,52.626],[6.384,52.612],[6.364,52.643],[6.326,52.66],[6.327,52.669],[6.27,52.665],[6.248,52.676],[6.202,52.685],[6.181,52.675],[6.157,52.692],[6.12,52.75],[6.156,52.763],[6.202,52.794],[6.137,52.839],[6.12,52.854],[6.081,52.839],[6.053,52.837],[6.06,52.826],[6.031,52.815],[6.025,52.823],[5.997,52.817],[5.972,52.842],[5.93,52.835],[5.924,52.824],[5.898,52.808],[5.876,52.801],[5.844,52.805],[5.82,52.817],[5.795,52.807],[5.819,52.788],[5.85,52.785],[5.88,52.773],[5.922,52.751],[5.943,52.715],[5.965,52.694],[5.934,52.676],[5.983,52.658],[6.019,52.643],[5.986,52.623],[5.962,52.624],[5.931,52.614],[5.896,52.618],[5.843,52.611],[5.829,52.587],[5.858,52.546],[5.857,52.544],[5.863,52.521],[5.864,52.52],[5.866,52.519],[5.887,52.517],[5.91,52.497],[5.926,52.474],[5.951,52.484],[5.965,52.476],[6.008,52.504],[6.028,52.51],[6.054,52.5],[6.071,52.482],[6.102,52.466],[6.105,52.443],[6.119,52.433],[6.111,52.408],[6.13,52.399],[6.124,52.381],[6.082,52.372],[6.071,52.322],[6.084,52.302],[6.101,52.301],[6.112,52.278],[6.13,52.261],[6.124,52.251],[6.148,52.228],[6.183,52.234],[6.217,52.226],[6.339,52.227],[6.338,52.236],[6.382,52.246],[6.416,52.242],[6.429,52.223],[6.479,52.183],[6.496,52.177],[6.518,52.181],[6.555,52.177],[6.59,52.182],[6.612,52.163],[6.645,52.174],[6.671,52.166],[6.674,52.143],[6.663,52.13],[6.716,52.118],[6.761,52.119],[6.855,52.12],[6.873,52.133],[6.882,52.156],[6.916,52.178],[6.951,52.181],[6.989,52.227],[7.019,52.225],[7.061,52.235],[7.066,52.241],[7.042,52.256],[7.028,52.278],[7.026,52.292],[7.048,52.32],[7.056,52.338],[7.072,52.352],[7.072,52.373],[7.059,52.399],[7.035,52.404],[7.011,52.429],[6.994,52.465],[6.978,52.466],[6.961,52.444],[6.942,52.435],[6.862,52.451],[6.854,52.46],[6.775,52.46],[6.753,52.464],[6.698,52.486],[6.705,52.521],[6.681,52.553],[6.716,52.549],[6.727,52.563],[6.752,52.559],[6.767,52.564],[6.719,52.589],[6.727,52.615],[6.71,52.628]]]},"properties":{"statcode":"PV23","jrstatcode":"2026PV23","statnaam":"Overijssel","rubriek":"provincie","id":4,"FID":"provincie_gegeneraliseerd.fe6e65d8-5195-46d5-a3ca-1d7279676c12"},"id":"PV23"},
    {"type":"Feature","geometry":{"type":"MultiPolygon","coordinates":[[[[5.843,52.611],[5.896,52.618],[5.886,52.62],[5.843,52.611]]],[[[5.795,52.807],[5.749,52.84],[5.725,52.844],[5.713,52.838],[5.66,52.828],[5.595,52.763],[5.593,52.663],[5.616,52.651],[5.652,52.617],[5.628,52.605],[5.559,52.592],[5.501,52.556],[5.456,52.55],[5.448,52.535],[5.428,52.538],[5.44,52.556],[5.469,52.57],[5.456,52.594],[5.4,52.649],[5.361,52.674],[5.354,52.678],[5.302,52.692],[5.287,52.691],[5.287,52.69],[5.305,52.69],[5.36,52.674],[5.399,52.649],[5.455,52.594],[5.467,52.572],[5.446,52.561],[5.438,52.555],[5.427,52.538],[5.426,52.53],[5.435,52.511],[5.395,52.491],[5.378,52.487],[5.258,52.435],[5.162,52.4],[5.129,52.383],[5.138,52.326],[5.139,52.325],[5.184,52.335],[5.221,52.334],[5.285,52.317],[5.313,52.303],[5.314,52.303],[5.317,52.304],[5.402,52.253],[5.47,52.263],[5.471,52.264],[5.529,52.275],[5.553,52.321],[5.553,52.334],[5.538,52.35],[5.564,52.368],[5.614,52.362],[5.615,52.363],[5.625,52.38],[5.661,52.398],[5.72,52.416],[5.747,52.415],[5.797,52.439],[5.817,52.457],[5.848,52.493],[5.857,52.518],[5.857,52.544],[5.858,52.546],[5.813,52.577],[5.756,52.582],[5.655,52.597],[5.663,52.613],[5.832,52.613],[5.964,52.639],[5.983,52.658],[5.934,52.676],[5.965,52.694],[5.943,52.715],[5.922,52.751],[5.88,52.773],[5.85,52.785],[5.819,52.788],[5.795,52.807]]]]},"properties":{"statcode":"PV24","jrstatcode":"2026PV24","statnaam":"Flevoland","rubriek":"provincie","id":5,"FID":"provincie_gegeneraliseerd.5b892674-9ec2-4bd2-93c6-7061c665a2fd"},"id":"PV24"}
  ]
}
